IRIDIUM 63              
1 25286U 98021B   26004.05310192  .00000704  00000+0  23200-3 0  9996
2 25286  86.3984 357.8487 0002129  82.5797 277.5642 14.36758342452688
IRIDIUM 69              
1 25319U 98026A   26004.07121691  .00000723  00000+0  21780-3 0  9996
2 25319  86.3971  10.4950 0004576  85.1811 274.9911 14.41240986451991
IRIDIUM 71              
1 25320U 98026B   26004.05647933  .00000558  00000+0  16654-3 0  9998
2 25320  86.3973   5.1721 0003794 116.7251 243.4338 14.41335346452521
IRIDIUM 73              
1 25344U 98032C   26003.90041632  .00001175  00000+0  28583-3 0  9998
2 25344  86.4424 321.5711 0002762  74.8690 285.2821 14.52028171459680
IRIDIUM 82              
1 25467U 98051A   26004.02040690  .00061565  00000+0  10676-2 0  9994
2 25467  86.3588   9.8702 0055779 244.2954 115.2539 15.48868501454840
