<?xml version="1.0" encoding="UTF-8"?>
<ndm xmlns:xsi="http://www.w3.org/2001/XMLSchema-instance" xsi:noNamespaceSchemaLocation="https://sanaregistry.org/r/ndmxml_unqualified/ndmxml-2.0.0-master-2.0.xsd">
<omm id="CCSDS_OMM_VERS" version="2.0">
<header><CREATION_DATE/><ORIGINATOR/></header><body><segment><metadata><OBJECT_NAME>IRIDIUM 63</OBJECT_NAME><OBJECT_ID>1998-021B</OBJECT_ID><CENTER_NAME>EARTH</CENTER_NAME><REF_FRAME>TEME</REF_FRAME><TIME_SYSTEM>UTC</TIME_SYSTEM><MEAN_ELEMENT_THEORY>SGP4</MEAN_ELEMENT_THEORY></metadata><data><meanElements><EPOCH>2026-01-04T01:16:28.005888</EPOCH><MEAN_MOTION>14.36758342</MEAN_MOTION><ECCENTRICITY>.0002129</ECCENTRICITY><INCLINATION>86.3984</INCLINATION><RA_OF_ASC_NODE>357.8487</RA_OF_ASC_NODE><ARG_OF_PERICENTER>82.5797</ARG_OF_PERICENTER><MEAN_ANOMALY>277.5642</MEAN_ANOMALY></meanElements><tleParameters><EPHEMERIS_TYPE>0</EPHEMERIS_TYPE><CLASSIFICATION_TYPE>U</CLASSIFICATION_TYPE><NORAD_CAT_ID>25286</NORAD_CAT_ID><ELEMENT_SET_NO>999</ELEMENT_SET_NO><REV_AT_EPOCH>45268</REV_AT_EPOCH><BSTAR>.232E-3</BSTAR><MEAN_MOTION_DOT>.704E-5</MEAN_MOTION_DOT><MEAN_MOTION_DDOT>0</MEAN_MOTION_DDOT></tleParameters></data></segment></body></omm>
<omm id="CCSDS_OMM_VERS" version="2.0">
<header><CREATION_DATE/><ORIGINATOR/></header><body><segment><metadata><OBJECT_NAME>IRIDIUM 69</OBJECT_NAME><OBJECT_ID>1998-026A</OBJECT_ID><CENTER_NAME>EARTH</CENTER_NAME><REF_FRAME>TEME</REF_FRAME><TIME_SYSTEM>UTC</TIME_SYSTEM><MEAN_ELEMENT_THEORY>SGP4</MEAN_ELEMENT_THEORY></metadata><data><meanElements><EPOCH>2026-01-04T01:42:33.141024</EPOCH><MEAN_MOTION>14.41240986</MEAN_MOTION><ECCENTRICITY>.0004576</ECCENTRICITY><INCLINATION>86.3971</INCLINATION><RA_OF_ASC_NODE>10.4950</RA_OF_ASC_NODE><ARG_OF_PERICENTER>85.1811</ARG_OF_PERICENTER><MEAN_ANOMALY>274.9911</MEAN_ANOMALY></meanElements><tleParameters><EPHEMERIS_TYPE>0</EPHEMERIS_TYPE><CLASSIFICATION_TYPE>U</CLASSIFICATION_TYPE><NORAD_CAT_ID>25319</NORAD_CAT_ID><ELEMENT_SET_NO>999</ELEMENT_SET_NO><REV_AT_EPOCH>45199</REV_AT_EPOCH><BSTAR>.2178E-3</BSTAR><MEAN_MOTION_DOT>.723E-5</MEAN_MOTION_DOT><MEAN_MOTION_DDOT>0</MEAN_MOTION_DDOT></tleParameters></data></segment></body></omm>
<omm id="CCSDS_OMM_VERS" version="2.0">
<header><CREATION_DATE/><ORIGINATOR/></header><body><segment><metadata><OBJECT_NAME>IRIDIUM 71</OBJECT_NAME><OBJECT_ID>1998-026B</OBJECT_ID><CENTER_NAME>EARTH</CENTER_NAME><REF_FRAME>TEME</REF_FRAME><TIME_SYSTEM>UTC</TIME_SYSTEM><MEAN_ELEMENT_THEORY>SGP4</MEAN_ELEMENT_THEORY></metadata><data><meanElements><EPOCH>2026-01-04T01:21:19.814112</EPOCH><MEAN_MOTION>14.41335346</MEAN_MOTION><ECCENTRICITY>.0003794</ECCENTRICITY><INCLINATION>86.3973</INCLINATION><RA_OF_ASC_NODE>5.1721</RA_OF_ASC_NODE><ARG_OF_PERICENTER>116.7251</ARG_OF_PERICENTER><MEAN_ANOMALY>243.4338</MEAN_ANOMALY></meanElements><tleParameters><EPHEMERIS_TYPE>0</EPHEMERIS_TYPE><CLASSIFICATION_TYPE>U</CLASSIFICATION_TYPE><NORAD_CAT_ID>25320</NORAD_CAT_ID><ELEMENT_SET_NO>999</ELEMENT_SET_NO><REV_AT_EPOCH>45252</REV_AT_EPOCH><BSTAR>.16654E-3</BSTAR><MEAN_MOTION_DOT>.558E-5</MEAN_MOTION_DOT><MEAN_MOTION_DDOT>0</MEAN_MOTION_DDOT></tleParameters></data></segment></body></omm>
<omm id="CCSDS_OMM_VERS" version="2.0">
<header><CREATION_DATE/><ORIGINATOR/></header><body><segment><metadata><OBJECT_NAME>IRIDIUM 73</OBJECT_NAME><OBJECT_ID>1998-032C</OBJECT_ID><CENTER_NAME>EARTH</CENTER_NAME><REF_FRAME>TEME</REF_FRAME><TIME_SYSTEM>UTC</TIME_SYSTEM><MEAN_ELEMENT_THEORY>SGP4</MEAN_ELEMENT_THEORY></metadata><data><meanElements><EPOCH>2026-01-03T21:36:35.970048</EPOCH><MEAN_MOTION>14.52028171</MEAN_MOTION><ECCENTRICITY>.0002762</ECCENTRICITY><INCLINATION>86.4424</INCLINATION><RA_OF_ASC_NODE>321.5711</RA_OF_ASC_NODE><ARG_OF_PERICENTER>74.8690</ARG_OF_PERICENTER><MEAN_ANOMALY>285.2821</MEAN_ANOMALY></meanElements><tleParameters><EPHEMERIS_TYPE>0</EPHEMERIS_TYPE><CLASSIFICATION_TYPE>U</CLASSIFICATION_TYPE><NORAD_CAT_ID>25344</NORAD_CAT_ID><ELEMENT_SET_NO>999</ELEMENT_SET_NO><REV_AT_EPOCH>45968</REV_AT_EPOCH><BSTAR>.28583E-3</BSTAR><MEAN_MOTION_DOT>.1175E-4</MEAN_MOTION_DOT><MEAN_MOTION_DDOT>0</MEAN_MOTION_DDOT></tleParameters></data></segment></body></omm>
<omm id="CCSDS_OMM_VERS" version="2.0">
<header><CREATION_DATE/><ORIGINATOR/></header><body><segment><metadata><OBJECT_NAME>IRIDIUM 82</OBJECT_NAME><OBJECT_ID>1998-051A</OBJECT_ID><CENTER_NAME>EARTH</CENTER_NAME><REF_FRAME>TEME</REF_FRAME><TIME_SYSTEM>UTC</TIME_SYSTEM><MEAN_ELEMENT_THEORY>SGP4</MEAN_ELEMENT_THEORY></metadata><data><meanElements><EPOCH>2026-01-04T00:29:23.156160</EPOCH><MEAN_MOTION>15.48868501</MEAN_MOTION><ECCENTRICITY>.0055779</ECCENTRICITY><INCLINATION>86.3588</INCLINATION><RA_OF_ASC_NODE>9.8702</RA_OF_ASC_NODE><ARG_OF_PERICENTER>244.2954</ARG_OF_PERICENTER><MEAN_ANOMALY>115.2539</MEAN_ANOMALY></meanElements><tleParameters><EPHEMERIS_TYPE>0</EPHEMERIS_TYPE><CLASSIFICATION_TYPE>U</CLASSIFICATION_TYPE><NORAD_CAT_ID>25467</NORAD_CAT_ID><ELEMENT_SET_NO>999</ELEMENT_SET_NO><REV_AT_EPOCH>45484</REV_AT_EPOCH><BSTAR>.10676E-2</BSTAR><MEAN_MOTION_DOT>.61565E-3</MEAN_MOTION_DOT><MEAN_MOTION_DDOT>0</MEAN_MOTION_DDOT></tleParameters></data></segment></body></omm>
</ndm>
